#dP2019  9 24  0  0  0.00000000      96 __u+U ITR00 FIT  IAC
## 2072 172800.00000000   900.00000000 58750 0.0000000000000
+  115   C01C02C03C04C06C07C08C09C10C11C12C13C14C16C19C20C21
+        C22C23C24C25C26C27C28C29C30C32C33C34C35C36C37E01E02
+        E03E04E05E07E08E09E11E12E13E14E15E18E19E21E24E25E26
+        E27E30E31E33E36G01G02G03G04G05G06G07G08G09G10G11G12
+        G13G14G15G16G17G18G19G20G21G22G23G24G25G26G27G28G29
+        G30G31G32J01J02J03R01R02R03R05R06R07R08R09R11R12R13
+        R14R15R16R17R18R19R20R21R22R23R24R26R27  0  0  0  0
++        13 13 13 13  9  8  8  8  8  8  8  8  0  9  8  8  8
++         8  8  8  8  8  8  7  8  8  8  8  8 10  9  9  5  5
++         5  5  5  5  5  5  5  5  5  5  5  5  5  5  5  5  5
++         4  4  5  5  5  3  3  3  4  3  3  3  4  4  3  3  3
++         4  3  3  4  3  3  3  4  3  3  4  3  3  3  4  3  3
++         3  3  3  8  8  8  6  5  5  5 11  5  5  5  5  5  6
++         5  6  6  5  5  6  6  5  5  5  6  8  8  0  0  0  0
%c M  cc GPS ccc cccc cccc cccc cccc ccccc ccccc ccccc ccccc
%c cc cc ccc ccc cccc cccc cccc cccc ccccc ccccc ccccc ccccc
%f  0.0000000  0.000000000  0.00000000000  0.000000000000000
%f  0.0000000  0.000000000  0.00000000000  0.000000000000000
%i    0    0    0    0      0      0      0      0         0
%i    0    0    0    0      0      0      0      0         0
/* INFORMATION & ANALYSIS CENTER (IAC)            RAPID DATA
/* S/V CLOCKS ARE ALIGNED TO GNSS TIME                      
/* G:C1WC2W R:C1PC2P E:C1XC5X C:C2IC6I J:C1CC2S             
/* PCV:IGS14_2070 OL/AL:FES2004  NONE     YN ORB:CoN CLK:CoN
*  2019 09 24  2 30  0.00000000
PC01 -32338.861688  27030.432175     87.292382    -71.854640
PC02   4350.552379  41952.405806    625.056317    851.659180
PC03 -14807.475241  39475.617749    729.551892    125.015933
PC04 -39588.895056  14442.420410    174.507929   -373.892344
PC06 -24602.034680  30578.134578 -15554.684209    396.727217
PC07 -10215.986213  35536.042377 -19611.911417   -150.217300
PC08 -12413.636845  18240.056199  35980.146835     -7.479269
PC09 -11410.731262  30099.834529 -27183.429326    -10.271829
PC10    -10.654384  41093.025015  -8207.237951   -204.985534
PC11  19477.602888   7807.761939  18484.689472     95.622401
PC12 -10380.592629  16321.433654  20142.943803   -249.538309
PC13   2893.313995  25376.214183  33656.281340   -879.801611
PC14      0.000000      0.000000      0.000000 999999.999999
PC16 -20418.593287  31302.613100 -19635.454650   -881.270752
PC19 -15339.602262  -4398.624380  22912.177441    201.086475
PC20  -5817.115074 -21919.054678  16294.354953    -95.546022
PC21  -7490.196494  26868.665944    207.935743    295.024694
PC22 -16114.439977  15921.259336  16275.275516   -138.621712
PC23  16364.259969  -5394.471366  21963.577365   -936.698016
PC24  15345.132759  22456.484326  -6274.634931   -895.575401
PC25  22836.934901  11336.901536  11362.420168   -358.606050
PC26    304.310695  19839.589956 -19630.850463    398.170990
PC27  10639.664852 -16590.553775 -19765.148608    194.723930
PC28  25408.425412 -10068.730244  -5677.227162    189.213364
PC29 -25331.087264  -1340.099242 -11631.904080    122.682981
PC30 -10588.126224 -13088.460355 -22258.044489    197.457513
PC32   7276.408810 -26946.097226   -171.171945   -923.321032
PC33  15371.589071   4365.500371 -22876.788474   -410.980814
PC34  10838.338889  13039.848536  22157.009730   -100.578772
PC35 -25094.194664  10887.990429   5590.946409   -371.681473
PC36 -22550.861023 -12025.620398 -11188.897649 999999.999999
PC37    689.142952 -19556.850011  19921.367001   -517.908270
PE01  -7628.984911  19291.663140 -21102.863300   -696.361839
PE02   7588.946150 -19351.838424  21079.706879     81.040116
PE03  18364.202518 -23218.972027    628.327717   -214.236561
PE04  -3399.157594  23698.865680 -17400.731397   -371.615352
PE05  22699.886294  -9109.777751 -16674.513454   -445.970528
PE07 -13735.731937 -10255.346362  24136.199769   -271.332038
PE08   3177.626790 -23615.703657  17572.205962   6287.565671
PE09  13756.239096   9983.150570 -24230.699499   6306.709938
PE11  24374.196638  11726.020681  12007.172078   5580.020558
PE12   5121.853342  16768.715808  23845.515279   6183.340716
PE13 -24339.186837 -11646.189971 -12164.683809    393.283264
PE14 -20686.855744  -9550.603821 -22404.857922   -731.297979
PE15  -5604.564340 -16667.098718 -23806.224606    894.238293
PE18  21685.858244   -541.513823  11820.901759   -825.637858
PE19 -19367.667017  22343.190859   1354.525083     -3.796923
PE21 -17370.348368   -994.187766 -23942.706179   -556.526443
PE24  16868.565524  20700.718429  12780.057867   5855.311334
PE25  17392.971049   1060.950703  23938.856681   1668.927245
PE26 -28813.745533    138.078825   6748.025791   4072.268720
PE27 -16910.053363 -20732.340392 -12659.120264    381.014080
PE30  -6412.102552 -28281.116250   5931.068882   4522.203330
PE31   6547.460266  28231.054994  -5985.010642   -468.798694
PE33 -16446.892565  11933.273336  21524.501678   -470.417430
PE36  28848.061108   -215.390328  -6639.170708    658.262864
PG01 -22075.068897 -14609.421817  -3928.816258   -139.015004
PG02   5234.361935  17600.207117  19852.300084   -311.562609
PG03 -13085.270625 -14618.122546  17889.644523    -14.291465
PG04   7939.384053 -20120.792040 -15333.183069     32.565335
PG05   3126.538936  26219.321912  -1694.874793     -1.683450
PG06 -10639.763287  11039.769472  21731.374731    -67.516082
PG07 -24119.084361  -4495.796416 -10479.552225   -112.758115
PG08  -9020.512199 -11994.730723 -21882.855273     -7.545110
PG09 -23141.608015   5101.872134  11954.511813    -38.980640
PG10  11754.230560 -15455.982589 -17962.351181    -66.155896
PG11 -21414.619336 -10080.099126 -12273.458507   -498.265950
PG12   9874.124393  19141.601691  15433.583205    200.952761
PG13  -1749.035182  16631.405011 -20733.146367    -42.666652
PG14  14723.589495 -18064.735154  12896.441551    -59.726647
PG15  11519.167270  11304.075548 -21394.940167   -284.776198
PG16    746.157681 -26307.275175   -553.392520    -76.921697
PG17 -20993.702492  15569.479544   4866.525183    131.345752
PG18 -16702.328766 -17080.398200 -12221.421623     87.995513
PG19 -17753.118770  16685.839395  10311.784095   -263.094396
PG20  15088.009284  -5472.617363 -21253.124758    526.978736
PG21  22430.556835   -460.566649 -13277.872220   -113.703512
PG22 -11777.372254 -20580.925065  12280.850000   -757.795230
PG23 -17849.044761  -5046.065629  19490.267221   -165.219925
PG24  21368.985092  14809.588928  -6424.107653     -2.543198
PG25  14875.750679   4564.615419  21345.684132    -13.304508
PG26   5299.574929 -23987.753449   9837.697575     45.996698
PG27   4150.694234 -17950.907620 -19126.279734    -65.492228
PG28 -12240.411327  15525.489765 -17183.080000    761.286157
PG29  22518.335461  -1843.792988  13950.383651     89.626922
PG30 -18426.525224   5050.756162 -18496.336833    -47.121766
PG31   9383.527774 -12183.480162  21669.806851      8.298426
PG32  20299.953216 -16559.407805   4003.851817     67.752770
PJ01 -29329.655071  27584.496857  17444.113855   -344.857755
PJ02 -20148.352007  20494.907248 -26423.784578     -4.531853
PJ03 -30492.889511  28477.464280  11177.158375     -2.486809
PR01  11989.050241 -22353.147833  -2775.096695     50.176422
PR02    723.994297 -19262.519670  16710.663378    389.569863
PR03 -10065.503672  -4421.111088  23053.879550      2.011465
PR05 -11320.548395  22870.604511    182.046445     36.277327
PR06    363.027017  18848.565155 -17210.393050    162.485258
PR07  10256.970305   3950.993724 -22986.440730    -27.062658
PR08  14902.410073 -12822.294159 -16198.798440     15.504647
PR09  12917.648354  21763.272523  -2852.778360     92.211449
PR11  12060.138025  -1493.392116  22442.336058    -80.396582
PR12    723.105255 -15855.757152  19997.490122     64.288623
PR13 -11895.558999 -21898.630971   5456.863629    -28.794707
PR14 -16859.738026 -15067.054431 -11807.024484     43.298081
PR15 -12382.746371    449.820355 -22268.950170    104.108098
PR16   -300.504761  16212.077069 -19745.747136      3.816758
PR17 -21915.270974  -4251.980662 -12292.725966    262.727176
PR18 -24885.910069   3548.324372   4484.328696      8.523144
PR19 -14768.236689   8978.186567  18751.590702    -55.342722
PR20   5985.192994   9941.314294  22714.324551   -391.345389
PR21  22375.023270   3900.669916  11643.858094    -74.348822
PR22  23904.983635  -4675.800507  -7377.798898   -176.857187
PR23   8870.594934 -10254.637190 -21618.462333    255.852650
PR24  -8402.436696  -9500.887541 -22160.101526   -185.040093
PR26   2546.167657  10308.002598  23202.687416     -2.918733
PR27 -14325.922811  -4378.788214 -20600.013009    123.974266
EOF
